NORAD_CAT_ID,OBJECT_NAME,OBJECT_TYPE,EPOCH,MEAN_MOTION,ECCENTRICITY,INCLINATION,RA_OF_ASC_NODE,ARG_OF_PERICENTER,MEAN_ANOMALY,BSTAR,MEAN_MOTION_DOT,MEAN_MOTION_DDOT,TLE_LINE0,TLE_LINE1,TLE_LINE2,SEMIMAJOR_AXIS,PERIOD,APOGEE,PERIGEE,DECAYED
53172.0,STARLINK-4299,PAYLOAD,2023-05-05 06:31:22,15.08835614,0.0001202,53.2149,145.1596,93.979,266.1339,5.4667e-05,5.82e-06,0.0,0 STARLINK-4299,1 53172U 22083AS  23125.27179234  .00000582  00000-0  54667-4 0  9998,2 53172  53.2149 145.1596 0001202  93.9790 266.1339 15.08835614 45142,6917.894,95.438,540.59,538.927,0.0
53172.0,STARLINK-4299,PAYLOAD,2023-05-05 11:17:32,15.08835752,0.0001191,53.215,144.2676,92.9666,267.1463,4.7806e-05,4.73e-06,0.0,0 STARLINK-4299,1 53172U 22083AS  23125.47051267  .00000473  00000-0  47806-4 0  9991,2 53172  53.2150 144.2676 0001191  92.9666 267.1463 15.08835752 44535,6917.893,95.438,540.582,538.934,0.0
53172.0,STARLINK-4299,PAYLOAD,2023-05-06 07:57:32,15.08842799,0.0001107,53.2148,140.4019,90.1868,269.9251,8.1362e-05,1.007e-05,0.0,0 STARLINK-4299,1 53172U 22083AS  23126.33162926  .00001007  00000-0  81362-4 0  9991,2 53172  53.2148 140.4019 0001107  90.1868 269.9251 15.08842799 44660,6917.872,95.437,540.503,538.971,0.0
53172.0,STARLINK-4299,PAYLOAD,2023-05-06 23:51:24,15.08839333,0.0001085,53.215,137.4284,89.4916,270.6201,9.178e-05,1.173e-05,0.0,0 STARLINK-4299,1 53172U 22083AS  23126.99403134  .00001173  00000-0  91780-4 0  9991,2 53172  53.2150 137.4284 0001085  89.4916 270.6201 15.08839333 45400,6917.882,95.438,540.498,538.997,0.0
53172.0,STARLINK-4299,PAYLOAD,2023-05-07 06:12:56,15.08841329,0.0001096,53.2147,136.239,89.8748,270.2369,0.00010659,1.409e-05,0.0,0 STARLINK-4299,1 53172U 22083AS  23127.25899009  .00001409  00000-0  10659-3 0  9998,2 53172  53.2147 136.2390 0001096  89.8748 270.2369 15.08841329 44802,6917.876,95.437,540.5,538.983,0.0
53172.0,STARLINK-4299,PAYLOAD,2023-05-07 17:20:38,15.08839754,0.0001168,53.2145,134.158,82.1515,277.961,6.851e-05,8.03e-06,0.0,0 STARLINK-4299,1 53172U 22083AS  23127.72267261  .00000803  00000-0  68510-4 0  9996,2 53172  53.2145 134.1580 0001168  82.1515 277.9610 15.08839754 44875,6917.881,95.438,540.554,538.938,0.0
53172.0,STARLINK-4299,PAYLOAD,2023-05-08 04:28:21,15.08834955,0.0001052,53.2144,132.0791,112.3909,247.7195,1.2371e-05,-9.1e-07,0.0,0 STARLINK-4299,1 53172U 22083AS  23128.18635701 -.00000091  00000-0  12371-4 0  9999,2 53172  53.2144 132.0791 0001052 112.3909 247.7195 15.08834955 45580,6917.896,95.438,540.489,539.033,0.0
53172.0,STARLINK-4299,PAYLOAD,2023-05-08 17:11:26,15.08840907,0.0001052,53.2145,129.6996,97.7171,262.394,1.5165e-05,-4.6e-07,0.0,0 STARLINK-4299,1 53172U 22083AS  23128.71627392 -.00000046  00000-0  15165-4 0  9999,2 53172  53.2145 129.6996 0001052  97.7171 262.3940 15.08840907 45021,6917.878,95.437,540.47,539.015,0.0
53172.0,STARLINK-4299,PAYLOAD,2023-05-09 04:19:07,15.08841912,0.000111,53.2145,127.6172,91.8984,268.2135,5.8085e-05,6.37e-06,0.0,0 STARLINK-4299,1 53172U 22083AS  23129.17995294  .00000637  00000-0  58085-4 0  9992,2 53172  53.2145 127.6172 0001110  91.8984 268.2135 15.08841912 45733,6917.875,95.437,540.507,538.972,0.0
53172.0,STARLINK-4299,PAYLOAD,2023-05-09 07:29:54,15.08842818,0.0001181,53.2152,127.0242,98.1898,261.9228,9.525e-05,1.228e-05,0.0,0 STARLINK-4299,1 53172U 22083AS  23129.31243180  .00001228  00000-0  95250-4 0  9990,2 53172  53.2152 127.0242 0001181  98.1898 261.9228 15.08842818 45116,6917.872,95.437,540.554,538.92,0.0
53172.0,STARLINK-4299,PAYLOAD,2023-05-10 05:45:18,15.0884057,0.0001228,53.2152,122.8589,87.5521,272.5612,0.00012776,1.746e-05,0.0,0 STARLINK-4299,1 53172U 22083AS  23130.23979442  .00001746  00000-0  12776-3 0  9996,2 53172  53.2152 122.8589 0001228  87.5521 272.5612 15.08840570 45253,6917.879,95.438,540.593,538.894,0.0
53172.0,STARLINK-4299,PAYLOAD,2023-05-10 16:53:00,15.08840353,0.0001191,53.2151,120.7767,88.2205,271.8923,8.2852e-05,1.031e-05,0.0,0 STARLINK-4299,1 53172U 22083AS  23130.70347566  .00001031  00000-0  82852-4 0  9994,2 53172  53.2151 120.7767 0001191  88.2205 271.8923 15.08840353 45327,6917.879,95.438,540.568,538.92,0.0
53172.0,STARLINK-4299,PAYLOAD,2023-05-11 05:36:05,15.08837094,0.0001152,53.2153,118.3956,93.9434,266.169,0.00017563,2.508e-05,0.0,0 STARLINK-4299,1 53172U 22083AS  23131.23339569  .00002508  00000-0  17563-3 0  9993,2 53172  53.2153 118.3956 0001152  93.9434 266.1690 15.08837094 46042,6917.889,95.438,540.551,538.957,0.0
53172.0,STARLINK-4299,PAYLOAD,2023-05-11 16:43:47,15.08841763,0.0001191,53.2153,116.3144,92.2857,267.8271,6.0933e-05,6.82e-06,0.0,0 STARLINK-4299,1 53172U 22083AS  23131.69707381  .00000682  00000-0  60933-4 0  9995,2 53172  53.2153 116.3144 0001191  92.2857 267.8271 15.08841763 45470,6917.875,95.437,540.564,538.916,0.0
53172.0,STARLINK-4299,PAYLOAD,2023-05-12 05:26:52,15.08835292,0.0001209,53.2152,113.9357,91.6611,268.4519,2.5917e-05,1.25e-06,0.0,0 STARLINK-4299,1 53172U 22083AS  23132.22699974  .00000125  00000-0  25917-4 0  9998,2 53172  53.2152 113.9357 0001209  91.6611 268.4519 15.08835292 45550,6917.895,95.438,540.596,538.923,0.0
53172.0,STARLINK-4299,PAYLOAD,2023-05-13 05:17:39,15.08837272,9.89e-05,53.2155,109.4772,85.4657,274.6449,6.7538e-05,7.87e-06,0.0,0 STARLINK-4299,1 53172U 22083AS  23133.22059967  .00000787  00000-0  67538-4 0  9990,2 53172  53.2155 109.4772 0000989  85.4657 274.6449 15.08837272 45707,6917.889,95.438,540.438,539.07,0.0
53172.0,STARLINK-4299,PAYLOAD,2023-05-13 19:36:08,15.0882599,0.000115,53.2157,106.801,89.6599,270.4525,0.00010416,1.37e-05,0.0,0 STARLINK-4299,1 53172U 22083AS  23133.81676682  .00001370  00000-0  10416-3 0  9995,2 53172  53.2157 106.8010 0001150  89.6599 270.4525 15.08825990 46431,6917.923,95.438,540.584,538.993,0.0
53172.0,STARLINK-4299,PAYLOAD,2023-05-14 05:08:27,15.08819198,0.0001129,53.2158,105.0168,91.0174,269.0948,0.00029543,4.414e-05,0.0,0 STARLINK-4299,1 53172U 22083AS  23134.21421034  .00004414  00000-0  29543-3 0  9992,2 53172  53.2158 105.0168 0001129  91.0174 269.0948 15.08819198 45850,6917.944,95.439,540.59,539.028,0.0
53172.0,STARLINK-4299,PAYLOAD,2023-05-15 04:59:14,15.08839194,0.000115,53.2161,100.5562,90.5616,269.5508,7.4759e-05,9.02e-06,0.0,0 STARLINK-4299,1 53172U 22083AS  23135.20780415  .00000902  00000-0  74759-4 0  9991,2 53172  53.2161 100.5562 0001150  90.5616 269.5508 15.08839194 46644,6917.883,95.438,540.543,538.952,0.0
53172.0,STARLINK-4299,PAYLOAD,2023-05-15 14:31:33,15.08837165,0.0001173,53.2163,98.7726,92.7778,267.3348,6.7646e-05,7.89e-06,0.0,0 STARLINK-4299,1 53172U 22083AS  23135.60524622  .00000789  00000-0  67646-4 0  9991,2 53172  53.2163  98.7726 0001173  92.7778 267.3348 15.08837165 46064,6917.889,95.438,540.566,538.943,0.0
53172.0,STARLINK-4299,PAYLOAD,2023-05-16 06:25:24,15.08841188,0.0001263,53.2167,95.7994,102.0214,258.092,8.9822e-05,1.142e-05,0.0,0 STARLINK-4299,1 53172U 22083AS  23136.26764423  .00001142  00000-0  89822-4 0  9993,2 53172  53.2167  95.7994 0001263 102.0214 258.0920 15.08841188 46807,6917.877,95.437,540.615,538.868,0.0
53172.0,STARLINK-4299,PAYLOAD,2023-05-17 03:05:25,15.0883789,0.0001307,53.2167,91.934,101.761,258.3529,2.521e-05,1.13e-06,0.0,0 STARLINK-4299,1 53172U 22083AS  23137.12876857  .00000113  00000-0  25210-4 0  9992,2 53172  53.2167  91.9340 0001307 101.7610 258.3529 15.08837890 46932,6917.887,95.438,540.656,538.848,0.0
53172.0,STARLINK-4299,PAYLOAD,2023-05-17 06:16:11,15.08841206,0.00013,53.217,91.3369,94.4884,265.6257,5.2446e-05,5.47e-06,0.0,0 STARLINK-4299,1 53172U 22083AS  23137.26124569  .00000547  00000-0  52446-4 0  9995,2 53172  53.2170  91.3369 0001300  94.4884 265.6257 15.08841206 46312,6917.877,95.437,540.641,538.842,0.0
53172.0,STARLINK-4299,PAYLOAD,2023-05-18 06:06:58,15.08839709,0.0001258,53.2169,86.8728,99.8371,260.2763,2.101e-05,4.7e-07,0.0,0 STARLINK-4299,1 53172U 22083AS  23138.25484810  .00000047  00000-0  21010-4 0  9991,2 53172  53.2169  86.8728 0001258  99.8371 260.2763 15.08839709 47106,6917.881,95.438,540.617,538.876,0.0
53172.0,STARLINK-4299,PAYLOAD,2023-05-19 02:46:58,15.08847614,0.0001262,53.217,83.0076,98.7664,261.3471,9.501e-05,1.225e-05,0.0,0 STARLINK-4299,1 53172U 22083AS  23139.11595994  .00001225  00000-0  95010-4 0  9993,2 53172  53.2170  83.0076 0001262  98.7664 261.3471 15.08847614 47237,6917.857,95.437,540.595,538.849,0.0
53172.0,STARLINK-4299,PAYLOAD,2023-05-20 02:37:46,15.08842003,0.0001176,53.217,78.5486,93.2249,266.8878,4.4006e-05,4.13e-06,0.0,0 STARLINK-4299,1 53172U 22083AS  23140.10956459  .00000413  00000-0  44006-4 0  9998,2 53172  53.2170  78.5486 0001176  93.2249 266.8878 15.08842003 47388,6917.874,95.437,540.553,538.926,0.0
53172.0,STARLINK-4299,PAYLOAD,2023-05-20 05:48:32,15.08843164,0.0001119,53.2167,77.9533,99.8336,260.2783,6.9341e-05,8.16e-06,0.0,0 STARLINK-4299,1 53172U 22083AS  23140.24204289  .00000816  00000-0  69341-4 0  9996,2 53172  53.2167  77.9533 0001119  99.8336 260.2783 15.08843164 46769,6917.871,95.437,540.51,538.962,0.0
53172.0,STARLINK-4299,PAYLOAD,2023-05-21 02:28:31,15.08860761,0.0001001,53.2167,74.09,99.6686,260.4419,0.0001195,1.616e-05,0.0,0 STARLINK-4299,1 53172U 22083AS  23141.10314669  .00001616  00000-0  11950-3 0  9997,2 53172  53.2167  74.0900 0001001  99.6686 260.4419 15.08860761 47537,6917.817,95.436,540.374,538.989,0.0
53172.0,STARLINK-4299,PAYLOAD,2023-05-21 05:39:18,15.08859781,0.0001149,53.2169,73.4936,95.7024,264.41,9.6091e-05,1.243e-05,0.0,0 STARLINK-4299,1 53172U 22083AS  23141.23562601  .00001243  00000-0  96091-4 0  9998,2 53172  53.2169  73.4936 0001149  95.7024 264.4100 15.08859781 46919,6917.82,95.436,540.48,538.89,0.0
53172.0,STARLINK-4299,PAYLOAD,2023-05-21 19:57:49,15.08824339,0.0001148,53.2169,70.8175,96.0954,264.0168,-0.00014019,-2.517e-05,0.0,0 STARLINK-4299,1 53172U 22083AS  23141.83181965 -.00002517  00000-0 -14019-3 0  9990,2 53172  53.2169  70.8175 0001148  96.0954 264.0168 15.08824339 47002,6917.928,95.439,540.587,538.999,0.0
